STARLINK-34597          
1 64738U 25144Q   25189.91668981 -.01268360  47389-3 -36264-2 0  9992
2 64738  53.1550 240.6144 0000572  98.1143  51.4408 15.92586603  2278
STARLINK-34471          
1 64739U 25144R   25189.91668981 -.01274102  47814-3 -36294-2 0  9990
2 64739  53.1551 240.6107 0000599  81.6242  69.6410 15.92658170  2234
STARLINK-34208          
1 64740U 25144S   25189.91668981 -.01283895  48525-3 -36415-2 0  9996
2 64740  53.1553 240.6066 0000578  87.3305  65.9312 15.92742626  2298
STARLINK-34205          
1 64741U 25144T   25189.91668981 -.01288745  48893-3 -36419-2 0  9998
2 64741  53.1552 240.6029 0000533  77.2818  77.6929 15.92813414  2293
STARLINK-34607          
1 64742U 25144U   25189.91668981 -.01303052  49924-3 -36679-2 0  9992
2 64742  53.1552 240.5991 0000669  78.9818  77.7965 15.92890663  2279
STARLINK-34236          
1 64743U 25144V   25189.91668981 -.01312668  50640-3 -36788-2 0  9994
2 64743  53.1552 240.5949 0000616  76.9943  81.7833 15.92975978  2296
STARLINK-34185          
1 64744U 25144W   25189.91668981 -.01321093  51268-3 -36893-2 0  9991
2 64744  53.1550 240.5915 0000660  87.2924  73.1194 15.93044936  2298
STARLINK-34581          
1 64745U 25144X   25189.91668981 -.01331584  52050-3 -37046-2 0  9999
2 64745  53.1550 240.5881 0000628  76.4118  85.6722 15.93118548  2296
STARLINK-34592          
1 64746U 25144Y   25189.91668981 -.01341189  52782-3 -37147-2 0  9996
2 64746  53.1551 240.5840 0000625  81.1704  82.9727 15.93205085  2292
STARLINK-34589          
1 64747U 25144Z   25189.91668981 -.01340394  52761-3 -36986-2 0  9991
2 64747  53.1551 240.5801 0000552 102.0400  63.9088 15.93276260  2297
STARLINK-34536          
1 64748U 25144AA  25189.91668981 -.01354735  53842-3 -37213-2 0  9991
2 64748  53.1549 240.5759 0000607  80.0176  87.9465 15.93364501  2294
STARLINK-34595          
1 64749U 25144AB  25189.91668981 -.01383783  56060-3 -37684-2 0  9994
2 64749  53.1550 240.5678 0000636  89.6094  82.2953 15.93533085  2298
STARLINK-34531          
1 64750U 25144AC  25189.91668981 -.01368011  54850-3 -37431-2 0  9998
2 64750  53.1551 240.5721 0000575  81.4315  88.3686 15.93440954  2290
PROGRESS-MS 31          
1 64751U 25146A   25189.85791014  .00007133  00000+0  13082-3 0  9991
2 64751  51.6334 199.6604 0002569 349.2805  10.8129 15.50441982518054
